{
  "norad_id": 62028,
  "name": "GSAT-N2 (GSAT-20)",
  "history": [
    {
      "epoch": "2026-03-28T21:57:16.846848Z",
      "apogee_km": 35788.89897845988,
      "perigee_km": 35784.92787401074,
      "latitude_deg": 0.006210111118789247,
      "longitude_deg": 67.96315011092221,
      "height_km": 35785.12719984489,
      "semi_major_axis_km": 42165.05042623531,
      "eccentricity": 4.709e-05,
      "inclination_deg": 0.0186,
      "raan_deg": 234.6859,
      "arg_perigee_deg": 298.6346,
      "mean_anomaly_deg": 50.2636,
      "mean_motion_rev_day": 1.00270649
    },
    {
      "epoch": "2026-03-29T04:08:38.618880Z",
      "apogee_km": 35788.90028590821,
      "perigee_km": 35784.89460763577,
      "latitude_deg": 0.032168867628771976,
      "longitude_deg": 67.96098148833588,
      "height_km": 35788.057518881185,
      "semi_major_axis_km": 42165.03444677199,
      "eccentricity": 4.75e-05,
      "inclination_deg": 0.018,
      "raan_deg": 233.258,
      "arg_perigee_deg": 297.04,
      "mean_anomaly_deg": 146.3801,
      "mean_motion_rev_day": 1.00270706
    },
    {
      "epoch": "2026-03-30T03:02:50.520768Z",
      "apogee_km": 35788.90806799291,
      "perigee_km": 35784.74216973557,
      "latitude_deg": 0.03380925757660211,
      "longitude_deg": 67.95739350743037,
      "height_km": 35787.9181994319,
      "semi_major_axis_km": 42164.96211886424,
      "eccentricity": 4.94e-05,
      "inclination_deg": 0.0149,
      "raan_deg": 228.6656,
      "arg_perigee_deg": 292.0857,
      "mean_anomaly_deg": 140.4141,
      "mean_motion_rev_day": 1.00270964
    },
    {
      "epoch": "2026-03-30T04:55:38.593920Z",
      "apogee_km": 35788.91918336422,
      "perigee_km": 35784.722083481385,
      "latitude_deg": 0.029503807491130848,
      "longitude_deg": 67.9543389506766,
      "height_km": 35788.378165410206,
      "semi_major_axis_km": 42164.957633422804,
      "eccentricity": 4.977e-05,
      "inclination_deg": 0.0147,
      "raan_deg": 228.5625,
      "arg_perigee_deg": 291.1186,
      "mean_anomaly_deg": 169.7615,
      "mean_motion_rev_day": 1.0027098
    },
    {
      "epoch": "2026-03-30T11:36:11.351808Z",
      "apogee_km": 35788.90138648853,
      "perigee_km": 35784.700072093176,
      "latitude_deg": -0.022098390681562153,
      "longitude_deg": 67.94613822374062,
      "height_km": 35786.17288910836,
      "semi_major_axis_km": 42164.937729290854,
      "eccentricity": 4.982e-05,
      "inclination_deg": 0.0137,
      "raan_deg": 226.538,
      "arg_perigee_deg": 289.8081,
      "mean_anomaly_deg": 273.5063,
      "mean_motion_rev_day": 1.00271051
    }
  ]
}